ARIANE 5 R/B            
1 28499U 04049H   25354.06436755  .00000811  00000+0  96543-4 0  9994
2 28499  98.2526 154.6085 0083343 248.8628 110.3663 14.85028653133979
CZ-2D R/B               
1 28738U 05024B   25354.00109785  .00021719  00000+0  34208-3 0  9997
2 28738  97.3621   1.6404 0004362 339.6434  20.4645 15.53583971127389
ALOS (DAICHI)           
1 28931U 06002A   25351.73419158  .00001110  00000+0  19545-3 0  9994
2 28931  98.1098 303.1864 0001361 113.5739 246.5610 14.69501788 61443
H-2A R/B                
1 28932U 06002B   25353.92024490  .00007481  00000+0  39322-3 0  9991
2 28932  98.2324 129.2561 0054721 152.0338 208.3851 15.14707218 82352
RESURS-DK 1             
1 29228U 06021A   25354.23900557  .00001835  00000+0  11222-3 0  9999
2 29228  69.9338  82.4576 0006865 252.7502 107.2912 15.12199508 75514
CZ-4B R/B               
1 29507U 06046C   25354.09612512  .00002980  00000+0  15683-3 0  9998
2 29507  97.5723  34.2149 0033896 180.7443 179.3744 15.15939749 47983
CZ-2C R/B               
1 31114U 07010B   25353.83441863  .00000091  00000+0  60800-4 0  9990
2 31114  98.3977 106.1282 0059399 165.3654 194.9261 14.20212534968380
COSMO-SKYMED 1          
1 31598U 07023A   25354.28047007  .00002980  00000+0  27226-3 0  9995
2 31598  97.8837 179.7292 0001578  84.2773 275.8628 14.95820698  3035
COSMOS 2428             
1 31792U 07029A   25354.17213654  .00000148  00000+0  10519-3 0  9999
2 31792  70.9365  10.2746 0004078  13.1123 347.0103 14.12892448952865
SL-16 R/B               
1 31793U 07029B   25354.24222956  .00000199  00000+0  12781-3 0  9992
2 31793  70.9757 339.3863 0001930 262.1298 184.8867 14.14816173954138
KORONAS-FOTON           
1 33504U 09003A   25354.02586991  .00007048  00000+0  16766-3 0  9993
2 33504  82.4303 358.5548 0013426  85.6817 274.5963 15.41335299933469
CZ-2C R/B               
1 37731U 11030B   25353.64177666  .00000995  00000+0  13276-3 0  9991
2 37731  97.8423 307.5959 0051376 250.5071 282.8404 14.80921965778247
H-2A R/B                
1 38341U 12025E   25354.13857294  .00001637  00000+0  15516-3 0  9994
2 38341  98.4607 309.9394 0044242 211.6658 148.1897 14.94489297736334
SHIJIAN-16 (SJ-16)      
1 39358U 13057A   25354.31357796  .00001097  00000+0  11082-3 0  9995
2 39358  74.9728 335.3237 0017822 302.1159  57.8299 14.92002760659667
SL-4 R/B                
1 39679U 14021B   25354.22416274  .00008285  00000+0  20098-3 0  9993
2 39679  51.6090   4.2159 0101098 173.1987 187.0395 15.36839426644041
ALOS-2                  
1 39766U 14029A   25354.25029727  .00002164  00000+0  29651-3 0  9998
2 39766  97.9231  88.9899 0001415  99.7764 260.3607 14.79471424625121
YAOGAN-29               
1 41038U 15069A   25354.30957043  .00000967  00000+0  12604-3 0  9994
2 41038  98.0212  17.5061 0000505 173.5724 186.5496 14.82892835544113
ASTRO-H (HITOMI)        
1 41337U 16012A   25353.83221082  .00002430  00000+0  14253-3 0  9998
2 41337  30.9977 151.6460 0009709 250.0410 109.9183 15.09394006540158
HXMT (HUIYAN)           
1 42758U 17034A   25354.30052556  .00004465  00000+0  23563-3 0  9996
2 42758  43.0143  97.6689 0031074  93.0966 267.3438 15.16315893470484
CZ-2C R/B               
1 43521U 18054D   25353.70750671  .00088072  00000+0  54867-3 0  9991
2 43521  35.1322 133.5926 0015164 214.6147 145.3600 15.75499724416153
SAOCOM 1A               
1 43641U 18076A   25353.89549035  .00000993  00000+0  13119-3 0  9999
2 43641  97.8839 178.2129 0001511  80.1993 279.9391 14.82168152389549
H-2A R/B                
1 43682U 18084L   25353.52602102  .00013775  00000+0  37146-3 0  9996
2 43682  98.8764 189.0125 0026889 302.7309  57.1340 15.37604041393444
SAOCOM 1B               
1 46265U 20059A   25354.26433066  .00000040  00000+0  11538-4 0  9993
2 46265  97.8832 177.6763 0001384  87.5354 272.6017 14.82142806286981
CSS (TIANHE)            
1 48274U 21035A   25354.20808758  .00018311  00000+0  22776-3 0  9993
2 48274  41.4685 331.3573 0007746  96.7908 263.3812 15.59496428265194
COSMOS 2550             
1 48865U 21056A   25353.89888216  .00000080  00000+0  82513-5 0  9994
2 48865  67.1455 282.2793 0008368 269.6426  90.3770 15.33838622251223
CZ-2C R/B               
1 52794U 22058K   25354.22719912  .00019224  00000+0  34392-3 0  9997
2 52794  50.1915   5.3549 0044965 229.4522 130.2527 15.48848735197796
CZ-2C R/B               
1 54039U 22132E   25353.94239709  .00022653  00000+0  33248-3 0  9992
2 54039  97.2938 350.2808 0022037  32.7354 327.5261 15.55236994177959
GSLV R/B                
1 54149U 22138AN  25354.01228954  .00001637  00000+0  14200-3 0  9995
2 54149  87.3824 193.0383 0024158  81.7305 278.6664 14.96163493172014
XRISM                   
1 57800U 23137A   25353.57504608  .00003667  00000+0  21210-3 0  9999
2 57800  31.0027  81.4100 0007694 313.8682  46.1320 15.10398433125669
ACS3                    
1 59588U 24077B   25353.90256001  .00019692  00000+0  16775-1 0  9999
2 59588  97.2634 307.9082 0076182 320.7274  38.8376 13.85811614 83134
SZ-21 MODULE            
1 66515U 25246C   25354.01665032  .00020613  00000+0  22500-3 0  9997
2 66515  41.4774 331.6436 0005613 298.6843  61.3432 15.62845969  5585
